{
  "norad_id": 67784,
  "name": "KUIPER-00225",
  "history": [
    {
      "epoch": "2026-03-28T19:40:01.904736",
      "apogee_km": 459.89040781811764,
      "perigee_km": 452.89991163450577,
      "latitude_deg": 44.66918749788257,
      "longitude_deg": -42.93121696007438,
      "semi_major_axis_km": 6834.532159726311,
      "eccentricity": 0.00051141,
      "inclination_deg": 51.8823,
      "raan_deg": 126.7959,
      "arg_perigee_deg": 90.2631,
      "mean_anomaly_deg": 269.8941,
      "mean_motion_rev_day": 15.36524802
    }
  ]
}